STARLINK-36870          
1 67897U 26035U   26068.83334490 -.01346418  00000+0 -59533-2 0  9994
2 67897  97.2675   1.1957 0001193  85.7794 273.2284 15.87055023  3784
STARLINK-36810          
1 67898U 26035V   26068.83334490 -.01344434  00000+0 -59531-2 0  9999
2 67898  97.2674   1.1975 0001196  77.1683 286.4453 15.87021636  3786
STARLINK-36878          
1 67899U 26035W   26068.83334490 -.01354811  00000+0 -60183-2 0  9995
2 67899  97.2670   1.2013 0001291  98.9153 273.8593 15.86976971  3781
STARLINK-36361          
1 67900U 26035X   26068.83334490 -.01365721  00000+0 -60858-2 0  9999
2 67900  97.2668   1.2032 0001272  88.1524 289.3968 15.86936735  3786
STARLINK-36336          
1 67901U 26035Y   26068.83334490 -.01388363  00000+0 -62422-2 0  9996
2 67901  97.2677   1.2103 0001307  75.6459 316.3131 15.86802819  3837
STARLINK-36876          
1 67902U 26035Z   26068.83334490 -.01372172  00000+0 -61215-2 0  9997
2 67902  97.2675   1.2065 0001292  86.9222 295.1185 15.86926840  3787
STARLINK-36257          
1 67903U 26035AA  26068.83334490 -.01393100  00000+0 -62322-2 0  9992
2 67903  97.2672   1.2073 0001252  77.6832 308.9491 15.86915224  3837
STARLINK-36814          
1 67904U 26036A   26068.83334490 -.01898887  00000+0 -14218-1 0  9996
2 67904  42.9994 248.9841 0001546 266.7633  45.0810 15.75029993  3674
STARLINK-36729          
1 67905U 26036B   26068.77424439  .00301974  00000+0  13817-2 0  9991
2 67905  42.9992 249.2799 0002432 286.5191  73.5413 15.82099593  3680
STARLINK-36763          
1 67906U 26036C   26068.83663060  .00260352  00000+0  11984-2 0  9991
2 67906  42.9990 248.8873 0001841 295.3135  64.7546 15.82083183  3694
STARLINK-36742          
1 67907U 26036D   26068.83587933  .00322445  00000+0  14710-2 0  9998
2 67907  42.9990 248.8812 0002123 286.4353  73.6285 15.82110985  3695
STARLINK-36827          
1 67908U 26036E   26068.83513146  .00282961  00000+0  12982-2 0  9991
2 67908  42.9986 248.8756 0002091 294.0673  65.9979 15.82092011  3695
