CCSDS_OMM_VERS = 2.0
CREATION_DATE  = 
ORIGINATOR     = 

OBJECT_NAME    = STARLINK-36870
OBJECT_ID      = 2026-035U
CENTER_NAME    = EARTH
REF_FRAME      = TEME
TIME_SYSTEM    = UTC
MEAN_ELEMENT_THEORY = SGP/SGP4

EPOCH          = 2026-03-09T20:00:00.999360
MEAN_MOTION    = 15.87055023
ECCENTRICITY   = .0001193
INCLINATION    = 97.2675
RA_OF_ASC_NODE = 1.1957
ARG_OF_PERICENTER = 85.7794
MEAN_ANOMALY   = 273.2284

EPHEMERIS_TYPE = 0
CLASSIFICATION_TYPE = U
NORAD_CAT_ID   = 67897
ELEMENT_SET_NO = 999
REV_AT_EPOCH   = 378
BSTAR          = -.59533E-2
MEAN_MOTION_DOT = -.1346418E-1
MEAN_MOTION_DDOT = 0

CCSDS_OMM_VERS = 2.0
CREATION_DATE  = 
ORIGINATOR     = 

OBJECT_NAME    = STARLINK-36810
OBJECT_ID      = 2026-035V
CENTER_NAME    = EARTH
REF_FRAME      = TEME
TIME_SYSTEM    = UTC
MEAN_ELEMENT_THEORY = SGP/SGP4

EPOCH          = 2026-03-09T20:00:00.999360
MEAN_MOTION    = 15.87021636
ECCENTRICITY   = .0001196
INCLINATION    = 97.2674
RA_OF_ASC_NODE = 1.1975
ARG_OF_PERICENTER = 77.1683
MEAN_ANOMALY   = 286.4453

EPHEMERIS_TYPE = 0
CLASSIFICATION_TYPE = U
NORAD_CAT_ID   = 67898
ELEMENT_SET_NO = 999
REV_AT_EPOCH   = 378
BSTAR          = -.59531E-2
MEAN_MOTION_DOT = -.1344434E-1
MEAN_MOTION_DDOT = 0

CCSDS_OMM_VERS = 2.0
CREATION_DATE  = 
ORIGINATOR     = 

OBJECT_NAME    = STARLINK-36878
OBJECT_ID      = 2026-035W
CENTER_NAME    = EARTH
REF_FRAME      = TEME
TIME_SYSTEM    = UTC
MEAN_ELEMENT_THEORY = SGP/SGP4

EPOCH          = 2026-03-09T20:00:00.999360
MEAN_MOTION    = 15.86976971
ECCENTRICITY   = .0001291
INCLINATION    = 97.2670
RA_OF_ASC_NODE = 1.2013
ARG_OF_PERICENTER = 98.9153
MEAN_ANOMALY   = 273.8593

EPHEMERIS_TYPE = 0
CLASSIFICATION_TYPE = U
NORAD_CAT_ID   = 67899
ELEMENT_SET_NO = 999
REV_AT_EPOCH   = 378
BSTAR          = -.60183E-2
MEAN_MOTION_DOT = -.1354811E-1
MEAN_MOTION_DDOT = 0

CCSDS_OMM_VERS = 2.0
CREATION_DATE  = 
ORIGINATOR     = 

OBJECT_NAME    = STARLINK-36361
OBJECT_ID      = 2026-035X
CENTER_NAME    = EARTH
REF_FRAME      = TEME
TIME_SYSTEM    = UTC
MEAN_ELEMENT_THEORY = SGP/SGP4

EPOCH          = 2026-03-09T20:00:00.999360
MEAN_MOTION    = 15.86936735
ECCENTRICITY   = .0001272
INCLINATION    = 97.2668
RA_OF_ASC_NODE = 1.2032
ARG_OF_PERICENTER = 88.1524
MEAN_ANOMALY   = 289.3968

EPHEMERIS_TYPE = 0
CLASSIFICATION_TYPE = U
NORAD_CAT_ID   = 67900
ELEMENT_SET_NO = 999
REV_AT_EPOCH   = 378
BSTAR          = -.60858E-2
MEAN_MOTION_DOT = -.1365721E-1
MEAN_MOTION_DDOT = 0

CCSDS_OMM_VERS = 2.0
CREATION_DATE  = 
ORIGINATOR     = 

OBJECT_NAME    = STARLINK-36336
OBJECT_ID      = 2026-035Y
CENTER_NAME    = EARTH
REF_FRAME      = TEME
TIME_SYSTEM    = UTC
MEAN_ELEMENT_THEORY = SGP/SGP4

EPOCH          = 2026-03-09T20:00:00.999360
MEAN_MOTION    = 15.86802819
ECCENTRICITY   = .0001307
INCLINATION    = 97.2677
RA_OF_ASC_NODE = 1.2103
ARG_OF_PERICENTER = 75.6459
MEAN_ANOMALY   = 316.3131

EPHEMERIS_TYPE = 0
CLASSIFICATION_TYPE = U
NORAD_CAT_ID   = 67901
ELEMENT_SET_NO = 999
REV_AT_EPOCH   = 383
BSTAR          = -.62422E-2
MEAN_MOTION_DOT = -.1388363E-1
MEAN_MOTION_DDOT = 0

CCSDS_OMM_VERS = 2.0
CREATION_DATE  = 
ORIGINATOR     = 

OBJECT_NAME    = STARLINK-36876
OBJECT_ID      = 2026-035Z
CENTER_NAME    = EARTH
REF_FRAME      = TEME
TIME_SYSTEM    = UTC
MEAN_ELEMENT_THEORY = SGP/SGP4

EPOCH          = 2026-03-09T20:00:00.999360
MEAN_MOTION    = 15.86926840
ECCENTRICITY   = .0001292
INCLINATION    = 97.2675
RA_OF_ASC_NODE = 1.2065
ARG_OF_PERICENTER = 86.9222
MEAN_ANOMALY   = 295.1185

EPHEMERIS_TYPE = 0
CLASSIFICATION_TYPE = U
NORAD_CAT_ID   = 67902
ELEMENT_SET_NO = 999
REV_AT_EPOCH   = 378
BSTAR          = -.61215E-2
MEAN_MOTION_DOT = -.1372172E-1
MEAN_MOTION_DDOT = 0

CCSDS_OMM_VERS = 2.0
CREATION_DATE  = 
ORIGINATOR     = 

OBJECT_NAME    = STARLINK-36257
OBJECT_ID      = 2026-035AA
CENTER_NAME    = EARTH
REF_FRAME      = TEME
TIME_SYSTEM    = UTC
MEAN_ELEMENT_THEORY = SGP/SGP4

EPOCH          = 2026-03-09T20:00:00.999360
MEAN_MOTION    = 15.86915224
ECCENTRICITY   = .0001252
INCLINATION    = 97.2672
RA_OF_ASC_NODE = 1.2073
ARG_OF_PERICENTER = 77.6832
MEAN_ANOMALY   = 308.9491

EPHEMERIS_TYPE = 0
CLASSIFICATION_TYPE = U
NORAD_CAT_ID   = 67903
ELEMENT_SET_NO = 999
REV_AT_EPOCH   = 383
BSTAR          = -.62322E-2
MEAN_MOTION_DOT = -.13931E-1
MEAN_MOTION_DDOT = 0

CCSDS_OMM_VERS = 2.0
CREATION_DATE  = 
ORIGINATOR     = 

OBJECT_NAME    = STARLINK-36814
OBJECT_ID      = 2026-036A
CENTER_NAME    = EARTH
REF_FRAME      = TEME
TIME_SYSTEM    = UTC
MEAN_ELEMENT_THEORY = SGP/SGP4

EPOCH          = 2026-03-09T20:00:00.999360
MEAN_MOTION    = 15.75029993
ECCENTRICITY   = .0001546
INCLINATION    = 42.9994
RA_OF_ASC_NODE = 248.9841
ARG_OF_PERICENTER = 266.7633
MEAN_ANOMALY   = 45.0810

EPHEMERIS_TYPE = 0
CLASSIFICATION_TYPE = U
NORAD_CAT_ID   = 67904
ELEMENT_SET_NO = 999
REV_AT_EPOCH   = 367
BSTAR          = -.14218E-1
MEAN_MOTION_DOT = -.1898887E-1
MEAN_MOTION_DDOT = 0

CCSDS_OMM_VERS = 2.0
CREATION_DATE  = 
ORIGINATOR     = 

OBJECT_NAME    = STARLINK-36729
OBJECT_ID      = 2026-036B
CENTER_NAME    = EARTH
REF_FRAME      = TEME
TIME_SYSTEM    = UTC
MEAN_ELEMENT_THEORY = SGP/SGP4

EPOCH          = 2026-03-09T18:34:54.715296
MEAN_MOTION    = 15.82099593
ECCENTRICITY   = .0002432
INCLINATION    = 42.9992
RA_OF_ASC_NODE = 249.2799
ARG_OF_PERICENTER = 286.5191
MEAN_ANOMALY   = 73.5413

EPHEMERIS_TYPE = 0
CLASSIFICATION_TYPE = U
NORAD_CAT_ID   = 67905
ELEMENT_SET_NO = 999
REV_AT_EPOCH   = 368
BSTAR          = .13817E-2
MEAN_MOTION_DOT = .301974E-2
MEAN_MOTION_DDOT = 0

CCSDS_OMM_VERS = 2.0
CREATION_DATE  = 
ORIGINATOR     = 

OBJECT_NAME    = STARLINK-36763
OBJECT_ID      = 2026-036C
CENTER_NAME    = EARTH
REF_FRAME      = TEME
TIME_SYSTEM    = UTC
MEAN_ELEMENT_THEORY = SGP/SGP4

EPOCH          = 2026-03-09T20:04:44.883840
MEAN_MOTION    = 15.82083183
ECCENTRICITY   = .0001841
INCLINATION    = 42.9990
RA_OF_ASC_NODE = 248.8873
ARG_OF_PERICENTER = 295.3135
MEAN_ANOMALY   = 64.7546

EPHEMERIS_TYPE = 0
CLASSIFICATION_TYPE = U
NORAD_CAT_ID   = 67906
ELEMENT_SET_NO = 999
REV_AT_EPOCH   = 369
BSTAR          = .11984E-2
MEAN_MOTION_DOT = .260352E-2
MEAN_MOTION_DDOT = 0

CCSDS_OMM_VERS = 2.0
CREATION_DATE  = 
ORIGINATOR     = 

OBJECT_NAME    = STARLINK-36742
OBJECT_ID      = 2026-036D
CENTER_NAME    = EARTH
REF_FRAME      = TEME
TIME_SYSTEM    = UTC
MEAN_ELEMENT_THEORY = SGP/SGP4

EPOCH          = 2026-03-09T20:03:39.974112
MEAN_MOTION    = 15.82110985
ECCENTRICITY   = .0002123
INCLINATION    = 42.9990
RA_OF_ASC_NODE = 248.8812
ARG_OF_PERICENTER = 286.4353
MEAN_ANOMALY   = 73.6285

EPHEMERIS_TYPE = 0
CLASSIFICATION_TYPE = U
NORAD_CAT_ID   = 67907
ELEMENT_SET_NO = 999
REV_AT_EPOCH   = 369
BSTAR          = .1471E-2
MEAN_MOTION_DOT = .322445E-2
MEAN_MOTION_DDOT = 0

CCSDS_OMM_VERS = 2.0
CREATION_DATE  = 
ORIGINATOR     = 

OBJECT_NAME    = STARLINK-36827
OBJECT_ID      = 2026-036E
CENTER_NAME    = EARTH
REF_FRAME      = TEME
TIME_SYSTEM    = UTC
MEAN_ELEMENT_THEORY = SGP/SGP4

EPOCH          = 2026-03-09T20:02:35.358144
MEAN_MOTION    = 15.82092011
ECCENTRICITY   = .0002091
INCLINATION    = 42.9986
RA_OF_ASC_NODE = 248.8756
ARG_OF_PERICENTER = 294.0673
MEAN_ANOMALY   = 65.9979

EPHEMERIS_TYPE = 0
CLASSIFICATION_TYPE = U
NORAD_CAT_ID   = 67908
ELEMENT_SET_NO = 999
REV_AT_EPOCH   = 369
BSTAR          = .12982E-2
MEAN_MOTION_DOT = .282961E-2
MEAN_MOTION_DDOT = 0

